[{"OBJECT_NAME":"STARLINK-31050","OBJECT_ID":"2023-192R","EPOCH":"2026-03-09T08:58:46.718976","MEAN_MOTION":15.30181401,"ECCENTRICITY":0.00013676,"INCLINATION":53.1604,"RA_OF_ASC_NODE":64.4434,"ARG_OF_PERICENTER":103.7803,"MEAN_ANOMALY":256.335,"EPHEMERIS_TYPE":0,"CLASSIFICATION_TYPE":"U","NORAD_CAT_ID":58546,"ELEMENT_SET_NO":999,"REV_AT_EPOCH":12593,"BSTAR":-5.119229e-5,"MEAN_MOTION_DOT":-1.874e-5,"MEAN_MOTION_DDOT":0},{"OBJECT_NAME":"ARC-1","OBJECT_ID":"2015-058F","EPOCH":"2026-03-09T11:16:24.767040","MEAN_MOTION":15.39473048,"ECCENTRICITY":0.00404032,"INCLINATION":64.7636,"RA_OF_ASC_NODE":93.5186,"ARG_OF_PERICENTER":65.9865,"MEAN_ANOMALY":294.5492,"EPHEMERIS_TYPE":0,"CLASSIFICATION_TYPE":"U","NORAD_CAT_ID":40969,"ELEMENT_SET_NO":999,"REV_AT_EPOCH":10163,"BSTAR":0.0010773685,"MEAN_MOTION_DOT":0.00043725,"MEAN_MOTION_DDOT":0}]
